[{"OBJECT_NAME":"STARLINK-34530","OBJECT_ID":"2025-133V","EPOCH":"2026-03-09T09:37:44.327136","MEAN_MOTION":15.3020525,"ECCENTRICITY":0.00012923,"INCLINATION":53.1589,"RA_OF_ASC_NODE":118.1746,"ARG_OF_PERICENTER":142.0568,"MEAN_ANOMALY":218.0524,"EPHEMERIS_TYPE":0,"CLASSIFICATION_TYPE":"U","NORAD_CAT_ID":64491,"ELEMENT_SET_NO":999,"REV_AT_EPOCH":4112,"BSTAR":0.00067541763,"MEAN_MOTION_DOT":0.00019701,"MEAN_MOTION_DDOT":0},{"OBJECT_NAME":"SL-3 R\/B","OBJECT_ID":"1983-003B","EPOCH":"2026-03-09T21:31:00.897888","MEAN_MOTION":15.34640469,"ECCENTRICITY":0.00285789,"INCLINATION":81.155,"RA_OF_ASC_NODE":261.9078,"ARG_OF_PERICENTER":155.4571,"MEAN_ANOMALY":204.8036,"EPHEMERIS_TYPE":0,"CLASSIFICATION_TYPE":"U","NORAD_CAT_ID":13771,"ELEMENT_SET_NO":999,"REV_AT_EPOCH":35642,"BSTAR":0.00033440366,"MEAN_MOTION_DOT":0.00011405,"MEAN_MOTION_DDOT":0}]
